{
  "type": "FeatureCollection",
  "features": [
    {
      "type": "Feature",
      "properties": {
        "norad_id": 37918,
        "name": "FENGYUN 1C DEB",
        "group": "fengyun-1c-debris",
        "lat": 21.744758727057167,
        "lon": -54.461333961769554,
        "alt_km": 804.4218105464979,
        "timestamp": "2025-12-25T03:55:56.647725+00:00",
        "meta_object_name": "FENGYUN 1C DEB",
        "meta_object_id": "1999-025ENT",
        "meta_epoch": "2025-12-24T14:26:11.944896",
        "meta_mean_motion": 14.34427362,
        "meta_eccentricity": 0.0054634,
        "meta_inclination": 99.0295,
        "meta_ra_of_asc_node": 308.5878,
        "meta_arg_of_pericenter": 248.3892,
        "meta_mean_anomaly": 111.1466,
        "meta_ephemeris_type": 0,
        "meta_classification_type": "U",
        "meta_norad_cat_id": 37918,
        "meta_element_set_no": 999,
        "meta_rev_at_epoch": 3712,
        "meta_bstar": 0.00066197,
        "meta_mean_motion_dot": 1.847e-05,
        "meta_mean_motion_ddot": 0,
        "tle_line1": "1 37918U 99025ENT 25358.60152714  .00001847  00000+0  66197-3 0  9993",
        "tle_line2": "2 37918  99.0295 308.5878 0054634 248.3892 111.1466 14.34427362 37120"
      },
      "geometry": {
        "type": "Point",
        "coordinates": [
          -54.461333961769554,
          21.744758727057167
        ]
      }
    },
    {
      "type": "Feature",
      "properties": {
        "norad_id": 37919,
        "name": "FENGYUN 1C DEB",
        "group": "fengyun-1c-debris",
        "lat": -33.798163981088166,
        "lon": 111.41291126737212,
        "alt_km": 829.6657275700309,
        "timestamp": "2025-12-25T03:55:56.647735+00:00",
        "meta_object_name": "FENGYUN 1C DEB",
        "meta_object_id": "1999-025ENU",
        "meta_epoch": "2025-12-21T13:05:37.870080",
        "meta_mean_motion": 14.26784577,
        "meta_eccentricity": 0.0049416,
        "meta_inclination": 99.0587,
        "meta_ra_of_asc_node": 293.7998,
        "meta_arg_of_pericenter": 351.2429,
        "meta_mean_anomaly": 8.7883,
        "meta_ephemeris_type": 0,
        "meta_classification_type": "U",
        "meta_norad_cat_id": 37919,
        "meta_element_set_no": 999,
        "meta_rev_at_epoch": 65034,
        "meta_bstar": 0.0004279,
        "meta_mean_motion_dot": 1.003e-05,
        "meta_mean_motion_ddot": 0,
        "tle_line1": "1 37919U 99025ENU 25355.54557720  .00001003  00000+0  42790-3 0  9997",
        "tle_line2": "2 37919  99.0587 293.7998 0049416 351.2429   8.7883 14.26784577650349"
      },
      "geometry": {
        "type": "Point",
        "coordinates": [
          111.41291126737212,
          -33.798163981088166
        ]
      }
    },
    {
      "type": "Feature",
      "properties": {
        "norad_id": 37921,
        "name": "FENGYUN 1C DEB",
        "group": "fengyun-1c-debris",
        "lat": 3.252682240652641,
        "lon": -139.5131739698183,
        "alt_km": 935.2683853037188,
        "timestamp": "2025-12-25T03:55:56.647746+00:00",
        "meta_object_name": "FENGYUN 1C DEB",
        "meta_object_id": "1999-025ENW",
        "meta_epoch": "2025-12-21T19:55:24.950496",
        "meta_mean_motion": 13.95159889,
        "meta_eccentricity": 0.00843197,
        "meta_inclination": 99.021,
        "meta_ra_of_asc_node": 36.7092,
        "meta_arg_of_pericenter": 74.058,
        "meta_mean_anomaly": 286.9853,
        "meta_ephemeris_type": 0,
        "meta_classification_type": "U",
        "meta_norad_cat_id": 37921,
        "meta_element_set_no": 999,
        "meta_rev_at_epoch": 63274,
        "meta_bstar": 0.00031229262,
        "meta_mean_motion_dot": 3.91e-06,
        "meta_mean_motion_ddot": 0,
        "tle_line1": "1 37921U 99025ENW 25355.83014989  .00000391  00000+0  31229-3 0  9991",
        "tle_line2": "2 37921  99.0210  36.7092 0084319  74.0580 286.9853 13.95159889632742"
      },
      "geometry": {
        "type": "Point",
        "coordinates": [
          -139.5131739698183,
          3.252682240652641
        ]
      }
    },
    {
      "type": "Feature",
      "properties": {
        "norad_id": 37925,
        "name": "FENGYUN 1C DEB",
        "group": "fengyun-1c-debris",
        "lat": 21.949365806088835,
        "lon": 53.64853042098368,
        "alt_km": 659.7794846992374,
        "timestamp": "2025-12-25T03:55:56.647756+00:00",
        "meta_object_name": "FENGYUN 1C DEB",
        "meta_object_id": "1999-025EPA",
        "meta_epoch": "2025-12-22T21:41:38.860800",
        "meta_mean_motion": 14.80526884,
        "meta_eccentricity": 0.0055816,
        "meta_inclination": 99.0855,
        "meta_ra_of_asc_node": 227.3947,
        "meta_arg_of_pericenter": 311.3833,
        "meta_mean_anomaly": 48.2583,
        "meta_ephemeris_type": 0,
        "meta_classification_type": "U",
        "meta_norad_cat_id": 37925,
        "meta_element_set_no": 999,
        "meta_rev_at_epoch": 65833,
        "meta_bstar": 0.0018808,
        "meta_mean_motion_dot": 0.00014755,
        "meta_mean_motion_ddot": 0,
        "tle_line1": "1 37925U 99025EPA 25356.90392200  .00014755  00000+0  18808-2 0  9995",
        "tle_line2": "2 37925  99.0855 227.3947 0055816 311.3833  48.2583 14.80526884658336"
      },
      "geometry": {
        "type": "Point",
        "coordinates": [
          53.64853042098368,
          21.949365806088835
        ]
      }
    },
    {
      "type": "Feature",
      "properties": {
        "norad_id": 37926,
        "name": "FENGYUN 1C DEB",
        "group": "fengyun-1c-debris",
        "lat": 15.244008879293506,
        "lon": 59.84615792727957,
        "alt_km": 850.3098725812997,
        "timestamp": "2025-12-25T03:55:56.647766+00:00",
        "meta_object_name": "FENGYUN 1C DEB",
        "meta_object_id": "1999-025EPB",
        "meta_epoch": "2025-12-24T16:38:31.240032",
        "meta_mean_motion": 14.24297977,
        "meta_eccentricity": 0.0054611,
        "meta_inclination": 98.7222,
        "meta_ra_of_asc_node": 61.777,
        "meta_arg_of_pericenter": 187.4316,
        "meta_mean_anomaly": 297.4382,
        "meta_ephemeris_type": 0,
        "meta_classification_type": "U",
        "meta_norad_cat_id": 37926,
        "meta_element_set_no": 999,
        "meta_rev_at_epoch": 74440,
        "meta_bstar": 0.0015113,
        "meta_mean_motion_dot": 3.501e-05,
        "meta_mean_motion_ddot": 0,
        "tle_line1": "1 37926U 99025EPB 25358.69341713  .00003501  00000+0  15113-2 0  9990",
        "tle_line2": "2 37926  98.7222  61.7770 0054611 187.4316 297.4382 14.24297977744400"
      },
      "geometry": {
        "type": "Point",
        "coordinates": [
          59.84615792727957,
          15.244008879293506
        ]
      }
    },
    {
      "type": "Feature",
      "properties": {
        "norad_id": 37927,
        "name": "FENGYUN 1C DEB",
        "group": "fengyun-1c-debris",
        "lat": -43.63324356926759,
        "lon": 152.3681351493117,
        "alt_km": 659.3647071676751,
        "timestamp": "2025-12-25T03:55:56.647777+00:00",
        "meta_object_name": "FENGYUN 1C DEB",
        "meta_object_id": "1999-025EPC",
        "meta_epoch": "2025-12-20T03:25:18.230304",
        "meta_mean_motion": 14.72067181,
        "meta_eccentricity": 0.00083592,
        "meta_inclination": 98.8071,
        "meta_ra_of_asc_node": 138.4338,
        "meta_arg_of_pericenter": 253.9424,
        "meta_mean_anomaly": 106.086,
        "meta_ephemeris_type": 0,
        "meta_classification_type": "U",
        "meta_norad_cat_id": 37927,
        "meta_element_set_no": 999,
        "meta_rev_at_epoch": 65225,
        "meta_bstar": 0.0024443804,
        "meta_mean_motion_dot": 0.00015349,
        "meta_mean_motion_ddot": 0,
        "tle_line1": "1 37927U 99025EPC 25354.14257211  .00015349  00000+0  24444-2 0  9996",
        "tle_line2": "2 37927  98.8071 138.4338 0008359 253.9424 106.0860 14.72067181652255"
      },
      "geometry": {
        "type": "Point",
        "coordinates": [
          152.3681351493117,
          -43.63324356926759
        ]
      }
    },
    {
      "type": "Feature",
      "properties": {
        "norad_id": 37928,
        "name": "FENGYUN 1C DEB",
        "group": "fengyun-1c-debris",
        "lat": 42.34627116983168,
        "lon": 62.43053401172333,
        "alt_km": 804.344334562612,
        "timestamp": "2025-12-25T03:55:56.647787+00:00",
        "meta_object_name": "FENGYUN 1C DEB",
        "meta_object_id": "1999-025EPD",
        "meta_epoch": "2025-12-21T09:04:11.551008",
        "meta_mean_motion": 14.37132631,
        "meta_eccentricity": 0.0073076,
        "meta_inclination": 98.9148,
        "meta_ra_of_asc_node": 230.2847,
        "meta_arg_of_pericenter": 7.9876,
        "meta_mean_anomaly": 352.2454,
        "meta_ephemeris_type": 0,
        "meta_classification_type": "U",
        "meta_norad_cat_id": 37928,
        "meta_element_set_no": 999,
        "meta_rev_at_epoch": 81316,
        "meta_bstar": 0.00050775945,
        "meta_mean_motion_dot": 1.508e-05,
        "meta_mean_motion_ddot": 0,
        "tle_line1": "1 37928U 99025EPD 25355.37791147  .00001508  00000+0  50776-3 0  9994",
        "tle_line2": "2 37928  98.9148 230.2847 0073076   7.9876 352.2454 14.37132631813161"
      },
      "geometry": {
        "type": "Point",
        "coordinates": [
          62.43053401172333,
          42.34627116983168
        ]
      }
    }
  ]
}